{
  "type": "FeatureCollection",
  "features": [
    {
      "type": "Feature",
      "properties": {
        "norad_id": 35000,
        "name": "COSMOS 2251 DEB",
        "group": "cosmos-2251-debris",
        "lat": -41.76688313902027,
        "lon": -175.6269911662936,
        "alt_km": 300.7763886883731,
        "timestamp": "2025-12-12T03:50:52.814135+00:00",
        "meta_object_name": "COSMOS 2251 DEB",
        "meta_object_id": "1993-036AFY",
        "meta_epoch": "2025-12-10T00:39:45.535104",
        "meta_mean_motion": 15.84722247,
        "meta_eccentricity": 0.00096992,
        "meta_inclination": 73.9939,
        "meta_ra_of_asc_node": 204.1935,
        "meta_arg_of_pericenter": 175.3945,
        "meta_mean_anomaly": 184.7377,
        "meta_ephemeris_type": 0,
        "meta_classification_type": "U",
        "meta_norad_cat_id": 35000,
        "meta_element_set_no": 999,
        "meta_rev_at_epoch": 88472,
        "meta_bstar": 0.007821664,
        "meta_mean_motion_dot": 0.0209211,
        "meta_mean_motion_ddot": 0,
        "tle_line1": "1 35000U 93036AFY 25344.02761036  .02092110  00000+0  78217-2 0  9993",
        "tle_line2": "2 35000  73.9939 204.1935 0009699 175.3945 184.7377 15.84722247884729"
      },
      "geometry": {
        "type": "Point",
        "coordinates": [
          -175.6269911662936,
          -41.76688313902027
        ]
      }
    },
    {
      "type": "Feature",
      "properties": {
        "norad_id": 35012,
        "name": "COSMOS 2251 DEB",
        "group": "cosmos-2251-debris",
        "lat": -66.44535374416478,
        "lon": 71.71924570529235,
        "alt_km": 699.0313450505055,
        "timestamp": "2025-12-12T03:50:52.814145+00:00",
        "meta_object_name": "COSMOS 2251 DEB",
        "meta_object_id": "1993-036AFZ",
        "meta_epoch": "2025-12-11T14:53:36.423744",
        "meta_mean_motion": 14.45546483,
        "meta_eccentricity": 0.00816702,
        "meta_inclination": 74.0192,
        "meta_ra_of_asc_node": 113.8244,
        "meta_arg_of_pericenter": 254.2266,
        "meta_mean_anomaly": 104.9874,
        "meta_ephemeris_type": 0,
        "meta_classification_type": "U",
        "meta_norad_cat_id": 35012,
        "meta_element_set_no": 999,
        "meta_rev_at_epoch": 87545,
        "meta_bstar": 0.00029512376,
        "meta_mean_motion_dot": 1.056e-05,
        "meta_mean_motion_ddot": 0,
        "tle_line1": "1 35012U 93036AFZ 25345.62056046  .00001056  00000+0  29512-3 0  9993",
        "tle_line2": "2 35012  74.0192 113.8244 0081670 254.2266 104.9874 14.45546483875454"
      },
      "geometry": {
        "type": "Point",
        "coordinates": [
          71.71924570529235,
          -66.44535374416478
        ]
      }
    },
    {
      "type": "Feature",
      "properties": {
        "norad_id": 35014,
        "name": "COSMOS 2251 DEB",
        "group": "cosmos-2251-debris",
        "lat": -27.020710213678093,
        "lon": 36.258694931661964,
        "alt_km": 651.9586260964179,
        "timestamp": "2025-12-12T03:50:52.814156+00:00",
        "meta_object_name": "COSMOS 2251 DEB",
        "meta_object_id": "1993-036AGB",
        "meta_epoch": "2025-12-10T11:17:04.408224",
        "meta_mean_motion": 14.75108648,
        "meta_eccentricity": 0.0007489,
        "meta_inclination": 73.9993,
        "meta_ra_of_asc_node": 47.9831,
        "meta_arg_of_pericenter": 224.1256,
        "meta_mean_anomaly": 135.932,
        "meta_ephemeris_type": 0,
        "meta_classification_type": "U",
        "meta_norad_cat_id": 35014,
        "meta_element_set_no": 999,
        "meta_rev_at_epoch": 71303,
        "meta_bstar": 0.0024781418,
        "meta_mean_motion_dot": 0.00016732,
        "meta_mean_motion_ddot": 0,
        "tle_line1": "1 35014U 93036AGB 25344.47018991  .00016732  00000+0  24781-2 0  9993",
        "tle_line2": "2 35014  73.9993  47.9831 0007489 224.1256 135.9320 14.75108648713038"
      },
      "geometry": {
        "type": "Point",
        "coordinates": [
          36.258694931661964,
          -27.020710213678093
        ]
      }
    },
    {
      "type": "Feature",
      "properties": {
        "norad_id": 35015,
        "name": "COSMOS 2251 DEB",
        "group": "cosmos-2251-debris",
        "lat": 55.75179312699568,
        "lon": -99.16572424376005,
        "alt_km": 693.0715709861424,
        "timestamp": "2025-12-12T03:50:52.814166+00:00",
        "meta_object_name": "COSMOS 2251 DEB",
        "meta_object_id": "1993-036AGC",
        "meta_epoch": "2025-12-08T23:19:05.687904",
        "meta_mean_motion": 14.46841193,
        "meta_eccentricity": 0.0074204,
        "meta_inclination": 73.9478,
        "meta_ra_of_asc_node": 241.8046,
        "meta_arg_of_pericenter": 111.6456,
        "meta_mean_anomaly": 265.9615,
        "meta_ephemeris_type": 0,
        "meta_classification_type": "U",
        "meta_norad_cat_id": 35015,
        "meta_element_set_no": 999,
        "meta_rev_at_epoch": 65386,
        "meta_bstar": 0.00095869,
        "meta_mean_motion_dot": 3.57e-05,
        "meta_mean_motion_ddot": 0,
        "tle_line1": "1 35015U 93036AGC 25342.97159361  .00003570  00000+0  95869-3 0  9996",
        "tle_line2": "2 35015  73.9478 241.8046 0074204 111.6456 265.9615 14.46841193653863"
      },
      "geometry": {
        "type": "Point",
        "coordinates": [
          -99.16572424376005,
          55.75179312699568
        ]
      }
    },
    {
      "type": "Feature",
      "properties": {
        "norad_id": 35016,
        "name": "COSMOS 2251 DEB",
        "group": "cosmos-2251-debris",
        "lat": 67.89254874661168,
        "lon": 70.2875502119373,
        "alt_km": 791.3483764118819,
        "timestamp": "2025-12-12T03:50:52.814176+00:00",
        "meta_object_name": "COSMOS 2251 DEB",
        "meta_object_id": "1993-036AGD",
        "meta_epoch": "2025-12-11T14:47:34.101024",
        "meta_mean_motion": 14.35056908,
        "meta_eccentricity": 0.01145766,
        "meta_inclination": 73.9299,
        "meta_ra_of_asc_node": 296.4953,
        "meta_arg_of_pericenter": 213.7154,
        "meta_mean_anomaly": 323.767,
        "meta_ephemeris_type": 0,
        "meta_classification_type": "U",
        "meta_norad_cat_id": 35016,
        "meta_element_set_no": 999,
        "meta_rev_at_epoch": 86766,
        "meta_bstar": 0.00052618005,
        "meta_mean_motion_dot": 1.588e-05,
        "meta_mean_motion_ddot": 0,
        "tle_line1": "1 35016U 93036AGD 25345.61636691  .00001588  00000+0  52618-3 0  9999",
        "tle_line2": "2 35016  73.9299 296.4953 0114576 213.7154 323.7670 14.35056908867663"
      },
      "geometry": {
        "type": "Point",
        "coordinates": [
          70.2875502119373,
          67.89254874661168
        ]
      }
    },
    {
      "type": "Feature",
      "properties": {
        "norad_id": 35018,
        "name": "COSMOS 2251 DEB",
        "group": "cosmos-2251-debris",
        "lat": -13.724188315523113,
        "lon": 106.91185221240461,
        "alt_km": 798.8929854206335,
        "timestamp": "2025-12-12T03:50:52.814186+00:00",
        "meta_object_name": "COSMOS 2251 DEB",
        "meta_object_id": "1993-036AGF",
        "meta_epoch": "2025-12-11T15:37:13.751904",
        "meta_mean_motion": 13.67111419,
        "meta_eccentricity": 0.03485154,
        "meta_inclination": 73.9756,
        "meta_ra_of_asc_node": 111.7752,
        "meta_arg_of_pericenter": 21.1953,
        "meta_mean_anomaly": 340.32,
        "meta_ephemeris_type": 0,
        "meta_classification_type": "U",
        "meta_norad_cat_id": 35018,
        "meta_element_set_no": 999,
        "meta_rev_at_epoch": 83171,
        "meta_bstar": 0.0010764193,
        "meta_mean_motion_dot": 1.351e-05,
        "meta_mean_motion_ddot": 0,
        "tle_line1": "1 35018U 93036AGF 25345.65085361  .00001351  00000+0  10764-2 0  9990",
        "tle_line2": "2 35018  73.9756 111.7752 0348515  21.1953 340.3200 13.67111419831713"
      },
      "geometry": {
        "type": "Point",
        "coordinates": [
          106.91185221240461,
          -13.724188315523113
        ]
      }
    },
    {
      "type": "Feature",
      "properties": {
        "norad_id": 35020,
        "name": "COSMOS 2251 DEB",
        "group": "cosmos-2251-debris",
        "lat": 34.11090027279969,
        "lon": 8.886528092753942,
        "alt_km": 745.0153202581496,
        "timestamp": "2025-12-12T03:50:52.814196+00:00",
        "meta_object_name": "COSMOS 2251 DEB",
        "meta_object_id": "1993-036AGH",
        "meta_epoch": "2025-12-11T00:55:30.154944",
        "meta_mean_motion": 14.62800781,
        "meta_eccentricity": 0.00911638,
        "meta_inclination": 74.0465,
        "meta_ra_of_asc_node": 202.2067,
        "meta_arg_of_pericenter": 316.7345,
        "meta_mean_anomaly": 42.6686,
        "meta_ephemeris_type": 0,
        "meta_classification_type": "U",
        "meta_norad_cat_id": 35020,
        "meta_element_set_no": 999,
        "meta_rev_at_epoch": 88213,
        "meta_bstar": 0.00021287557,
        "meta_mean_motion_dot": 1.119e-05,
        "meta_mean_motion_ddot": 0,
        "tle_line1": "1 35020U 93036AGH 25345.03854346  .00001119  00000+0  21288-3 0  9998",
        "tle_line2": "2 35020  74.0465 202.2067 0091163 316.7345  42.6686 14.62800781882137"
      },
      "geometry": {
        "type": "Point",
        "coordinates": [
          8.886528092753942,
          34.11090027279969
        ]
      }
    }
  ]
}